{"type": "FeatureCollection", "features": [ {"type": "Feature", "properties": {"norad_id": 33153, "name": "INTELSAT 25 (IS-25)", "group": "intelsat", "lat": -1.2217468126384956, "lon": -64.32367185120997, "alt_km": 35767.02939447659, "timestamp": "2025-12-06T16:45:42.394133+00:00", "meta": {"OBJECT_NAME": "INTELSAT 25 (IS-25)", "OBJECT_ID": "2008-034A", "EPOCH": "2025-12-06T06:39:59.798880", "MEAN_MOTION": 1.00270775, "ECCENTRICITY": 0.00054485, "INCLINATION": 2.2102, "RA_OF_ASC_NODE": 82.7189, "ARG_OF_PERICENTER": 180.8026, "MEAN_ANOMALY": 240.3072, "EPHEMERIS_TYPE": 0, "CLASSIFICATION_TYPE": "U", "NORAD_CAT_ID": 33153, "ELEMENT_SET_NO": 999, "REV_AT_EPOCH": 6376, "BSTAR": 0, "MEAN_MOTION_DOT": -2.17e-06, "MEAN_MOTION_DDOT": 0}, "tle": {"line1": "1 33153U 08034A   25340.27777545 -.00000217  00000+0  00000+0 0  9997", "line2": "2 33153   2.2102  82.7189 0005448 180.8026 240.3072  1.00270775 63764"}}, "geometry": {"type": "Point", "coordinates": [-64.32367185120997, -1.2217468126384956]}}, {"type": "Feature", "properties": {"norad_id": 33376, "name": "GALAXY 19 (G-19)", "group": "intelsat", "lat": -0.01380354329632384, "lon": -129.8705462351257, "alt_km": 35774.624373158134, "timestamp": "2025-12-06T16:45:42.394145+00:00", "meta": {"OBJECT_NAME": "GALAXY 19 (G-19)", "OBJECT_ID": "2008-045A", "EPOCH": "2025-12-06T05:46:26.930208", "MEAN_MOTION": 1.00270679, "ECCENTRICITY": 0.00034509, "INCLINATION": 0.0216, "RA_OF_ASC_NODE": 59.88, "ARG_OF_PERICENTER": 206.6204, "MEAN_ANOMALY": 158.3997, "EPHEMERIS_TYPE": 0, "CLASSIFICATION_TYPE": "U", "NORAD_CAT_ID": 33376, "ELEMENT_SET_NO": 999, "REV_AT_EPOCH": 6296, "BSTAR": 0, "MEAN_MOTION_DOT": -1.31e-06, "MEAN_MOTION_DDOT": 0}, "tle": {"line1": "1 33376U 08045A   25340.24058947 -.00000131  00000+0  00000+0 0  9996", "line2": "2 33376   0.0216  59.8800 0003450 206.6204 158.3997  1.00270679 62962"}}, "geometry": {"type": "Point", "coordinates": [-129.8705462351257, -0.01380354329632384]}}, {"type": "Feature", "properties": {"norad_id": 35493, "name": "FM-5", "group": "intelsat", "lat": -0.03266574247859798, "lon": -118.99320237930226, "alt_km": 35784.696701890185, "timestamp": "2025-12-06T16:45:42.394157+00:00", "meta": {"OBJECT_NAME": "FM-5", "OBJECT_ID": "2009-034A", "EPOCH": "2025-12-06T06:24:23.792256", "MEAN_MOTION": 1.00271623, "ECCENTRICITY": 5.831e-05, "INCLINATION": 0.0173, "RA_OF_ASC_NODE": 291.4821, "ARG_OF_PERICENTER": 256.0446, "MEAN_ANOMALY": 257.7334, "EPHEMERIS_TYPE": 0, "CLASSIFICATION_TYPE": "U", "NORAD_CAT_ID": 35493, "ELEMENT_SET_NO": 999, "REV_AT_EPOCH": 4471, "BSTAR": 0, "MEAN_MOTION_DOT": -1.92e-06, "MEAN_MOTION_DDOT": 0}, "tle": {"line1": "1 35493U 09034A   25340.26694204 -.00000192  00000+0  00000+0 0  9998", "line2": "2 35493   0.0173 291.4821 0000583 256.0446 257.7334  1.00271623 44716"}}, "geometry": {"type": "Point", "coordinates": [-118.99320237930226, -0.03266574247859798]}}, {"type": "Feature", "properties": {"norad_id": 36097, "name": "INTELSAT 14 (IS-14)", "group": "intelsat", "lat": -0.02831965402940781, "lon": -77.8270447236943, "alt_km": 35775.65917907933, "timestamp": "2025-12-06T16:45:42.394169+00:00", "meta": {"OBJECT_NAME": "INTELSAT 14 (IS-14)", "OBJECT_ID": "2009-064A", "EPOCH": "2025-12-06T06:36:07.668864", "MEAN_MOTION": 1.00271248, "ECCENTRICITY": 0.00027342, "INCLINATION": 0.0101, "RA_OF_ASC_NODE": 335.0367, "ARG_OF_PERICENTER": 283.6166, "MEAN_ANOMALY": 230.7072, "EPHEMERIS_TYPE": 0, "CLASSIFICATION_TYPE": "U", "NORAD_CAT_ID": 36097, "ELEMENT_SET_NO": 999, "REV_AT_EPOCH": 5867, "BSTAR": 0, "MEAN_MOTION_DOT": -2.65e-06, "MEAN_MOTION_DDOT": 0}, "tle": {"line1": "1 36097U 09064A   25340.27508876 -.00000265  00000+0  00000+0 0  9993", "line2": "2 36097   0.0101 335.0367 0002734 283.6166 230.7072  1.00271248 58676"}}, "geometry": {"type": "Point", "coordinates": [-77.8270447236943, -0.02831965402940781]}}, {"type": "Feature", "properties": {"norad_id": 36106, "name": "INTELSAT 15 (IS-15)", "group": "intelsat", "lat": 0.040014680001924104, "lon": 52.31891589386284, "alt_km": 35796.037257452845, "timestamp": "2025-12-06T16:45:42.394180+00:00", "meta": {"OBJECT_NAME": "INTELSAT 15 (IS-15)", "OBJECT_ID": "2009-067A", "EPOCH": "2025-12-06T03:24:38.406816", "MEAN_MOTION": 1.00270429, "ECCENTRICITY": 0.00025042, "INCLINATION": 0.0155, "RA_OF_ASC_NODE": 329.9506, "ARG_OF_PERICENTER": 288.2668, "MEAN_ANOMALY": 313.2879, "EPHEMERIS_TYPE": 0, "CLASSIFICATION_TYPE": "U", "NORAD_CAT_ID": 36106, "ELEMENT_SET_NO": 999, "REV_AT_EPOCH": 3929, "BSTAR": 0, "MEAN_MOTION_DOT": -1.77e-06, "MEAN_MOTION_DDOT": 0}, "tle": {"line1": "1 36106U 09067A   25340.14211119 -.00000177  00000+0  00000+0 0  9996", "line2": "2 36106   0.0155 329.9506 0002504 288.2668 313.2879  1.00270429 39295"}}, "geometry": {"type": "Point", "coordinates": [52.31891589386284, 0.040014680001924104]}}, {"type": "Feature", "properties": {"norad_id": 36131, "name": "DIRECTV 12", "group": "intelsat", "lat": 0.011711489247873524, "lon": -135.59027031332087, "alt_km": 35787.17723633493, "timestamp": "2025-12-06T16:45:42.394192+00:00", "meta": {"OBJECT_NAME": "DIRECTV 12", "OBJECT_ID": "2009-075A", "EPOCH": "2025-12-06T00:16:38.669952", "MEAN_MOTION": 1.00268752, "ECCENTRICITY": 1.842e-05, "INCLINATION": 0.0514, "RA_OF_ASC_NODE": 135.8141, "ARG_OF_PERICENTER": 196.6474, "MEAN_ANOMALY": 4.0261, "EPHEMERIS_TYPE": 0, "CLASSIFICATION_TYPE": "U", "NORAD_CAT_ID": 36131, "ELEMENT_SET_NO": 999, "REV_AT_EPOCH": 4461, "BSTAR": 0, "MEAN_MOTION_DOT": -9.4e-07, "MEAN_MOTION_DDOT": 0}, "tle": {"line1": "1 36131U 09075A   25340.01155868 -.00000094  00000+0  00000+0 0  9995", "line2": "2 36131   0.0514 135.8141 0000184 196.6474   4.0261  1.00268752 44618"}}, "geometry": {"type": "Point", "coordinates": [-135.59027031332087, 0.011711489247873524]}}, {"type": "Feature", "properties": {"norad_id": 36397, "name": "INTELSAT 16 (IS-16)", "group": "intelsat", "lat": -0.03318252603491075, "lon": -109.05027687061083, "alt_km": 35776.25760338304, "timestamp": "2025-12-06T16:45:42.394204+00:00", "meta": {"OBJECT_NAME": "INTELSAT 16 (IS-16)", "OBJECT_ID": "2010-006A", "EPOCH": "2025-12-06T06:27:16.016832", "MEAN_MOTION": 1.00271271, "ECCENTRICITY": 0.00023828, "INCLINATION": 0.01, "RA_OF_ASC_NODE": 319.9056, "ARG_OF_PERICENTER": 298.3679, "MEAN_ANOMALY": 197.6585, "EPHEMERIS_TYPE": 0, "CLASSIFICATION_TYPE": "U", "NORAD_CAT_ID": 36397, "ELEMENT_SET_NO": 999, "REV_AT_EPOCH": 5772, "BSTAR": 0, "MEAN_MOTION_DOT": -2.37e-06, "MEAN_MOTION_DDOT": 0}, "tle": {"line1": "1 36397U 10006A   25340.26893538 -.00000237  00000+0  00000+0 0  9994", "line2": "2 36397   0.0100 319.9056 0002382 298.3679 197.6585  1.00271271 57726"}}, "geometry": {"type": "Point", "coordinates": [-109.05027687061083, -0.03318252603491075]}}, {"type": "Feature", "properties": {"norad_id": 37185, "name": "XM-5", "group": "intelsat", "lat": -0.07088199622245289, "lon": -148.00027272029985, "alt_km": 35780.68703316143, "timestamp": "2025-12-06T16:45:42.394216+00:00", "meta": {"OBJECT_NAME": "XM-5", "OBJECT_ID": "2010-053A", "EPOCH": "2025-12-06T00:52:13.899072", "MEAN_MOTION": 1.00278634, "ECCENTRICITY": 0.000179, "INCLINATION": 0.0624, "RA_OF_ASC_NODE": 273.2338, "ARG_OF_PERICENTER": 236.3382, "MEAN_ANOMALY": 183.3829, "EPHEMERIS_TYPE": 0, "CLASSIFICATION_TYPE": "U", "NORAD_CAT_ID": 37185, "ELEMENT_SET_NO": 999, "REV_AT_EPOCH": 5554, "BSTAR": 0, "MEAN_MOTION_DOT": -1.5e-07, "MEAN_MOTION_DDOT": 0}, "tle": {"line1": "1 37185U 10053A   25340.03627198 -.00000015  00000+0  00000+0 0  9998", "line2": "2 37185   0.0624 273.2338 0001790 236.3382 183.3829  1.00278634 55544"}}, "geometry": {"type": "Point", "coordinates": [-148.00027272029985, -0.07088199622245289]}}, {"type": "Feature", "properties": {"norad_id": 37238, "name": "INTELSAT 17 (IS-17)", "group": "intelsat", "lat": 0.028913477116171166, "lon": 33.169037357762285, "alt_km": 35794.18388681416, "timestamp": "2025-12-06T16:45:42.394228+00:00", "meta": {"OBJECT_NAME": "INTELSAT 17 (IS-17)", "OBJECT_ID": "2010-065B", "EPOCH": "2025-12-06T03:42:28.738656", "MEAN_MOTION": 1.0027159, "ECCENTRICITY": 0.00024686, "INCLINATION": 0.0095, "RA_OF_ASC_NODE": 300.8669, "ARG_OF_PERICENTER": 311.7148, "MEAN_ANOMALY": 304.2376, "EPHEMERIS_TYPE": 0, "CLASSIFICATION_TYPE": "U", "NORAD_CAT_ID": 37238, "ELEMENT_SET_NO": 999, "REV_AT_EPOCH": 5131, "BSTAR": 0, "MEAN_MOTION_DOT": 7e-08, "MEAN_MOTION_DDOT": 0}, "tle": {"line1": "1 37238U 10065B   25340.15449929  .00000007  00000+0  00000+0 0  9997", "line2": "2 37238   0.0095 300.8669 0002468 311.7148 304.2376  1.00271590 51316"}}, "geometry": {"type": "Point", "coordinates": [33.169037357762285, 0.028913477116171166]}}, {"type": "Feature", "properties": {"norad_id": 37392, "name": "INTELSAT 28 (IS-28)", "group": "intelsat", "lat": -0.6783418656222839, "lon": -64.53385776389686, "alt_km": 35771.87761567093, "timestamp": "2025-12-06T16:45:42.394239+00:00", "meta": {"OBJECT_NAME": "INTELSAT 28 (IS-28)", "OBJECT_ID": "2011-016A", "EPOCH": "2025-12-06T06:39:59.798880", "MEAN_MOTION": 1.00270628, "ECCENTRICITY": 0.00041679, "INCLINATION": 1.307, "RA_OF_ASC_NODE": 85.1359, "ARG_OF_PERICENTER": 176.4398, "MEAN_ANOMALY": 242.0384, "EPHEMERIS_TYPE": 0, "CLASSIFICATION_TYPE": "U", "NORAD_CAT_ID": 37392, "ELEMENT_SET_NO": 999, "REV_AT_EPOCH": 5135, "BSTAR": 0, "MEAN_MOTION_DOT": -2.18e-06, "MEAN_MOTION_DDOT": 0}, "tle": {"line1": "1 37392U 11016A   25340.27777545 -.00000218  00000+0  00000+0 0  9991", "line2": "2 37392   1.3070  85.1359 0004167 176.4398 242.0384  1.00270628 51357"}}, "geometry": {"type": "Point", "coordinates": [-64.53385776389686, -0.6783418656222839]}}]}